NORAD_CAT_ID,OBJECT_NAME,OBJECT_TYPE,EPOCH,MEAN_MOTION,ECCENTRICITY,INCLINATION,RA_OF_ASC_NODE,ARG_OF_PERICENTER,MEAN_ANOMALY,BSTAR,MEAN_MOTION_DOT,MEAN_MOTION_DDOT,TLE_LINE0,TLE_LINE1,TLE_LINE2,SEMIMAJOR_AXIS,PERIOD,APOGEE,PERIGEE,DECAYED
53160.0,STARLINK-4096,PAYLOAD,2024-01-23 09:15:59,15.08847411,0.0001583,53.2174,49.0838,83.7163,276.4009,8.907e-05,1.13e-05,0.0,0 STARLINK-4096,1 53160U 22083AE  24023.38610732  .00001130  00000-0  89070-4 0  9994,2 53160  53.2174  49.0838 0001583  83.7163 276.4009 15.08847411 84791,6917.858,95.437,540.818,538.628,0.0
53160.0,STARLINK-4096,PAYLOAD,2024-01-24 07:31:25,15.08812233,0.0001961,53.2197,44.9205,68.8431,291.277,0.00042841,6.532e-05,0.0,0 STARLINK-4096,1 53160U 22083AE  24024.31348629  .00006532  00000-0  42841-3 0  9996,2 53160  53.2197  44.9205 0001961  68.8431 291.2770 15.08812233 84930,6917.965,95.439,541.187,538.474,0.0
53160.0,STARLINK-4096,PAYLOAD,2024-01-25 07:22:10,15.08853904,0.0002018,53.2208,40.4524,70.428,289.693,3.4854e-05,2.67e-06,0.0,0 STARLINK-4096,1 53160U 22083AE  24025.30706692  .00000267  00000-0  34854-4 0  9999,2 53160  53.2208  40.4524 0002018  70.4280 289.6930 15.08853904 85089,6917.838,95.437,541.099,538.307,0.0
53160.0,STARLINK-4096,PAYLOAD,2024-01-26 04:02:11,15.08833861,0.0002375,53.2193,36.5981,133.6568,226.4622,0.00015787,2.225e-05,0.0,0 STARLINK-4096,1 53160U 22083AE  24026.16818919  .00002225  00000-0  15787-3 0  9999,2 53160  53.2193  36.5981 0002375 133.6568 226.4622 15.08833861 85214,6917.899,95.438,541.407,538.121,0.0
53160.0,STARLINK-4096,PAYLOAD,2024-01-26 07:12:57,15.08845079,0.0001812,53.2194,36.0009,111.7854,248.3331,8.14e-05,1.008e-05,0.0,0 STARLINK-4096,1 53160U 22083AE  24026.30066772  .00001008  00000-0  81400-4 0  9991,2 53160  53.2194  36.0009 0001812 111.7854 248.3331 15.08845079 84607,6917.865,95.437,540.983,538.476,0.0
53160.0,STARLINK-4096,PAYLOAD,2024-01-27 03:52:58,15.08842301,0.0002082,53.2188,32.1354,131.9595,228.1575,-5.4401e-05,-1.154e-05,0.0,0 STARLINK-4096,1 53160U 22083AE  24027.16179116 -.00001154  00000-0 -54401-4 0  9998,2 53160  53.2188  32.1354 0002082 131.9595 228.1575 15.08842301 85361,6917.873,95.437,541.179,538.298,0.0
53160.0,STARLINK-4096,PAYLOAD,2024-01-27 10:14:31,15.08842323,0.0001706,53.2188,30.9422,103.8049,256.3133,-3.012e-05,-7.67e-06,0.0,0 STARLINK-4096,1 53160U 22083AE  24027.42675231 -.00000767  00000-0 -30120-4 0  9997,2 53160  53.2188  30.9422 0001706 103.8049 256.3133 15.08842323 84778,6917.873,95.437,540.918,538.558,0.0
53160.0,STARLINK-4096,PAYLOAD,2024-01-28 05:19:09,15.08838803,0.0001553,53.2187,27.3733,99.2101,260.9067,3.5973e-06,-2.31e-06,0.0,0 STARLINK-4096,1 53160U 22083AE  24028.22163636 -.00000231  00000-0  35973-5 0  9994,2 53160  53.2187  27.3733 0001553  99.2101 260.9067 15.08838803 85528,6917.884,95.438,540.823,538.675,0.0
53160.0,STARLINK-4096,PAYLOAD,2024-01-28 10:05:19,15.08830033,0.0001606,53.219,26.4813,105.5114,254.6055,0.00013669,1.888e-05,0.0,0 STARLINK-4096,1 53160U 22083AE  24028.42035894  .00001888  00000-0  13669-3 0  9994,2 53160  53.2190  26.4813 0001606 105.5114 254.6055 15.08830033 84922,6917.911,95.438,540.887,538.665,0.0
53160.0,STARLINK-4096,PAYLOAD,2024-01-29 05:09:56,15.08837288,0.0001648,53.2191,22.9128,103.8356,256.2819,9.7265e-05,1.26e-05,0.0,0 STARLINK-4096,1 53160U 22083AE  24029.21523797  .00001260  00000-0  97265-4 0  9995,2 53160  53.2191  22.9128 0001648 103.8356 256.2819 15.08837288 85047,6917.889,95.438,540.894,538.614,0.0
53160.0,STARLINK-4096,PAYLOAD,2024-01-30 08:11:26,15.0888194,0.0002422,53.2195,17.8583,137.2164,222.9017,0.00042522,6.493e-05,0.0,0 STARLINK-4096,1 53160U 22083AE  24030.34128287  .00006493  00000-0  42522-3 0  9994,2 53160  53.2195  17.8583 0002422 137.2164 222.9017 15.08881940 85840,6917.752,95.435,541.293,537.942,0.0
53160.0,STARLINK-4096,PAYLOAD,2024-01-31 03:16:09,15.08818062,0.0001833,53.2183,14.2873,114.1661,245.9523,-0.00012058,-2.205e-05,0.0,0 STARLINK-4096,1 53160U 22083AE  24031.13622217 -.00002205  00000-0 -12058-3 0  9994,2 53160  53.2183  14.2873 0001833 114.1661 245.9523 15.08818062 85966,6917.947,95.439,541.081,538.544,0.0
53160.0,STARLINK-4096,PAYLOAD,2024-01-31 06:26:56,15.08819708,0.0001719,53.2194,13.6981,84.9912,275.1276,-0.00010719,-1.993e-05,0.0,0 STARLINK-4096,1 53160U 22083AE  24031.26870501 -.00001993  00000-0 -10719-3 0  9994,2 53160  53.2194  13.6981 0001719  84.9912 275.1276 15.08819708 85358,6917.942,95.439,540.997,538.618,0.0
53160.0,STARLINK-4096,PAYLOAD,2024-01-31 22:20:46,15.08867742,0.0001524,53.2183,10.7245,88.2252,271.8914,-0.00035825,-5.989e-05,0.0,0 STARLINK-4096,1 53160U 22083AE  24031.93108861 -.00005989  00000-0 -35825-3 0  9995,2 53160  53.2183  10.7245 0001524  88.2252 271.8914 15.08867742 85459,6917.796,95.436,540.715,538.606,0.0
53160.0,STARLINK-4096,PAYLOAD,2024-02-01 03:06:54,15.08867439,0.0001633,53.2188,9.8378,96.4174,263.7004,-0.00027842,-4.72e-05,0.0,0 STARLINK-4096,1 53160U 22083AE  24032.12980146 -.00004720  00000-0 -27842-3 0  9993,2 53160  53.2188   9.8378 0001633  96.4174 263.7004 15.08867439 86112,6917.797,95.436,540.791,538.532,0.0
53160.0,STARLINK-4096,PAYLOAD,2024-02-01 04:42:17,15.08868515,0.0001862,53.2188,9.5409,88.3977,271.7228,-0.00027394,-4.649e-05,0.0,0 STARLINK-4096,1 53160U 22083AE  24032.19604068 -.00004649  00000-0 -27394-3 0  9998,2 53160  53.2188   9.5409 0001862  88.3977 271.7228 15.08868515 85492,6917.793,95.436,540.946,538.37,0.0
53160.0,STARLINK-4096,PAYLOAD,2024-02-02 04:33:04,15.08845335,0.0001902,53.2197,5.0755,89.5787,270.5423,0.00026126,3.873e-05,0.0,0 STARLINK-4096,1 53160U 22083AE  24033.18964074  .00003873  00000-0  26126-3 0  9992,2 53160  53.2197   5.0755 0001902  89.5787 270.5423 15.08845335 86270,6917.864,95.437,541.045,538.413,0.0
53160.0,STARLINK-4096,PAYLOAD,2024-02-02 07:43:50,15.08849077,0.0001844,53.2192,4.4791,101.2859,258.834,0.00027361,4.07e-05,0.0,0 STARLINK-4096,1 53160U 22083AE  24033.32211656  .00004070  00000-0  27361-3 0  9991,2 53160  53.2192   4.4791 0001844 101.2859 258.8340 15.08849077 85661,6917.853,95.437,540.993,538.442,0.0
53160.0,STARLINK-4096,PAYLOAD,2024-02-03 04:23:52,15.08851637,0.0002021,53.2191,0.6042,121.3776,238.7414,-0.00014142,-2.539e-05,0.0,0 STARLINK-4096,1 53160U 22083AE  24034.18324282 -.00002539  00000-0 -14142-3 0  9999,2 53160  53.2191   0.6042 0002021 121.3776 238.7414 15.08851637 86425,6917.845,95.437,541.108,538.312,0.0
53160.0,STARLINK-4096,PAYLOAD,2024-02-03 07:34:38,15.08849419,0.000179,53.2195,0.0178,100.7704,259.349,-5.1348e-05,-1.105e-05,0.0,0 STARLINK-4096,1 53160U 22083AE  24034.31572328 -.00001105  00000-0 -51348-4 0  9998,2 53160  53.2195   0.0178 0001790 100.7704 259.3490 15.08849419 85817,6917.852,95.437,540.955,538.478,0.0
53160.0,STARLINK-4096,PAYLOAD,2024-02-04 04:14:38,15.08851406,0.0001735,53.2192,356.1527,86.8129,273.3061,-7.0607e-06,-4.01e-06,0.0,0 STARLINK-4096,1 53160U 22083AE  24035.17683801 -.00000401  00000-0 -70607-5 0  9990,2 53160  53.2192 356.1527 0001735  86.8129 273.3061 15.08851406 85944,6917.846,95.437,540.911,538.51,0.0
53160.0,STARLINK-4096,PAYLOAD,2024-02-04 21:43:53,15.08840273,0.0001745,53.2194,352.8857,93.7085,266.4106,3.0326e-05,1.95e-06,0.0,0 STARLINK-4096,1 53160U 22083AE  24035.90548406  .00000195  00000-0  30326-4 0  9993,2 53160  53.2194 352.8857 0001745  93.7085 266.4106 15.08840273 86689,6917.88,95.438,540.952,538.537,0.0
53160.0,STARLINK-4096,PAYLOAD,2024-02-05 13:37:44,15.08847148,0.0001766,53.2192,349.9102,83.4592,276.6601,7.8766e-05,9.66e-06,0.0,0 STARLINK-4096,1 53160U 22083AE  24036.56787709  .00000966  00000-0  78766-4 0  9993,2 53160  53.2192 349.9102 0001766  83.4592 276.6601 15.08847148 86152,6917.859,95.437,540.945,538.502,0.0
53160.0,STARLINK-4096,PAYLOAD,2024-02-06 03:56:13,15.0883954,0.0001943,53.22,347.236,94.6527,265.4688,-3.4542e-05,-8.38e-06,0.0,0 STARLINK-4096,1 53160U 22083AE  24037.16404682 -.00000838  00000-0 -34542-4 0  9990,2 53160  53.2200 347.2360 0001943  94.6527 265.4688 15.08839540 86875,6917.882,95.438,541.091,538.403,0.0
53160.0,STARLINK-4096,PAYLOAD,2024-02-06 05:31:36,15.08842451,0.0002014,53.2206,346.9409,102.233,257.8888,1.9301e-06,-2.58e-06,0.0,0 STARLINK-4096,1 53160U 22083AE  24037.23028401 -.00000258  00000-0  19301-5 0  9991,2 53160  53.2206 346.9409 0002014 102.2330 257.8888 15.08842451 86253,6917.873,95.437,541.131,538.345,0.0
53160.0,STARLINK-4096,PAYLOAD,2024-02-07 03:47:01,15.08836906,0.0001749,53.2188,342.7739,72.7874,287.3309,-1.013e-05,-4.49e-06,0.0,0 STARLINK-4096,1 53160U 22083AE  24038.15765235 -.00000449  00000-0 -10130-4 0  9999,2 53160  53.2188 342.7739 0001749  72.7874 287.3309 15.08836906 87020,6917.89,95.438,540.965,538.545,0.0
53160.0,STARLINK-4096,PAYLOAD,2024-02-07 05:22:23,15.08842525,0.0001636,53.2191,342.475,93.4751,266.6429,3.7221e-05,3.04e-06,0.0,0 STARLINK-4096,1 53160U 22083AE  24038.22388622  .00000304  00000-0  37221-4 0  9996,2 53160  53.2191 342.4750 0001636  93.4751 266.6429 15.08842525 87031,6917.873,95.437,540.869,538.606,0.0
53160.0,STARLINK-4096,PAYLOAD,2024-02-07 13:19:20,15.08835472,0.0001866,53.2193,340.9891,85.9053,274.2152,-1.1229e-05,-4.67e-06,0.0,0 STARLINK-4096,1 53160U 22083AE  24038.55509447 -.00000467  00000-0 -11229-4 0  9994,2 53160  53.2193 340.9891 0001866  85.9053 274.2152 15.08835472 86454,6917.894,95.438,541.05,538.468,0.0
53160.0,STARLINK-4096,PAYLOAD,2024-02-08 00:27:01,15.08832205,0.0001254,53.2186,338.9062,87.6775,272.436,0.000132,1.813e-05,0.0,0 STARLINK-4096,1 53160U 22083AE  24039.01877246  .00001813  00000-0  13200-3 0  9995,2 53160  53.2186 338.9062 0001254  87.6775 272.4360 15.08832205 86524,6917.904,95.438,540.637,538.902,0.0
53160.0,STARLINK-4096,PAYLOAD,2024-02-09 01:53:11,15.08846389,0.0001889,53.2182,334.1493,65.4118,294.7071,7.6264e-05,9.26e-06,0.0,0 STARLINK-4096,1 53160U 22083AE  24040.07860912  .00000926  00000-0  76264-4 0  9999,2 53160  53.2182 334.1493 0001889  65.4118 294.7071 15.08846389 87317,6917.861,95.437,541.033,538.419,0.0
